ASTROSAT                
1 40930U 15052A   17346.16209988  .00000806  00000-0  24370-4 0  9997
2 40930   6.0001  47.0644 0008017 245.4853 114.4436 14.76180938119299
